[{"OBJECT_NAME":"STARLINK-5923","OBJECT_ID":"2023-064AT","EPOCH":"2026-03-09T12:01:31.314432","MEAN_MOTION":14.98334951,"ECCENTRICITY":0.0002996,"INCLINATION":69.9991,"RA_OF_ASC_NODE":104.9595,"ARG_OF_PERICENTER":276.4731,"MEAN_ANOMALY":83.6087,"EPHEMERIS_TYPE":0,"CLASSIFICATION_TYPE":"U","NORAD_CAT_ID":56489,"ELEMENT_SET_NO":999,"REV_AT_EPOCH":15620,"BSTAR":9.4045218e-5,"MEAN_MOTION_DOT":1.029e-5,"MEAN_MOTION_DDOT":0},{"OBJECT_NAME":"FENGYUN 1C DEB","OBJECT_ID":"1999-025AKL","EPOCH":"2026-03-09T14:47:46.011264","MEAN_MOTION":14.88806868,"ECCENTRICITY":0.0088849,"INCLINATION":98.9015,"RA_OF_ASC_NODE":300.2677,"ARG_OF_PERICENTER":245.5096,"MEAN_ANOMALY":169.9787,"EPHEMERIS_TYPE":0,"CLASSIFICATION_TYPE":"U","NORAD_CAT_ID":30546,"ELEMENT_SET_NO":999,"REV_AT_EPOCH":1749,"BSTAR":0.00087367,"MEAN_MOTION_DOT":8.737e-5,"MEAN_MOTION_DDOT":0}]
